H1 CPF  1  HTS 2022  8  1 12  7131 larets           NONE
H2  0304206 5557    27944 2022 08 01  0  0  0 2022 08 06  0  0  0   180 1 1  0 0 0
H5  0.0560 
H9 
10 0 59795  33480.00000  0   -1804602.219   -2771519.198    6227056.440
10 0 59795  33660.00000  0   -1517243.581   -1527939.740    6711373.587
10 0 59795  33840.00000  0   -1141350.816    -237405.891    6949416.150
10 0 59795  34020.00000  0    -690014.349    1050917.869    6932361.930
10 0 59795  34200.00000  0    -180367.516    2288305.800    6660714.409
10 0 59795  34380.00000  0     367065.069    3428330.288    6144303.597
10 0 59795  34560.00000  0     929191.605    4428629.690    5401957.559
10 0 59795  34740.00000  0    1481321.063    5252525.742    4460849.336
10 0 59795  34920.00000  0    1998240.297    5870427.101    3355527.858
10 0 59795  35100.00000  0    2455356.821    6260959.924    2126659.938
10 0 59795  35280.00000  0    2829852.024    6411769.826     819506.506
10 0 59795  35460.00000  0    3101780.220    6319935.841    -517800.580
10 0 59795  35640.00000  0    3255055.558    5991979.012   -1836095.950
10 0 59795  35820.00000  0    3278277.802    5443470.245   -3087050.728
10 0 59795  36000.00000  0    3165352.301    4698260.675   -4224990.870
10 0 59795  36180.00000  0    2915871.617    3787380.514   -5208577.583
10 0 59795  36360.00000  0    2535247.795    2747680.942   -6002280.401
10 0 59795  36540.00000  0    2034600.114    1620291.980   -6577598.639
10 0 59795  36720.00000  0    1430409.459     448971.719   -6914000.446
10 0 59795  36900.00000  0     743961.895    -721581.061   -6999572.142
10 0 59795  37080.00000  0        597.533   -1847397.852   -6831378.995
10 0 59795  37260.00000  0    -771206.570   -2886842.240   -6415536.433
10 0 59795  37440.00000  0   -1540896.176   -3802106.690   -5767004.607
10 0 59795  37620.00000  0   -2277013.668   -4560565.574   -4909099.389
10 0 59795  37800.00000  0   -2948453.403   -5135945.867   -3872727.861
10 0 59795  37980.00000  0   -3525757.868   -5509272.101   -2695347.310
10 0 59795  38160.00000  0   -3982399.419   -5669540.893   -1419669.734
10 0 59795  38340.00000  0   -4295991.578   -5614090.798     -92143.231
10 0 59795  38520.00000  0   -4449364.405   -5348638.008    1238742.235
10 0 59795  38700.00000  0   -4431443.894   -4886965.525    2524256.397
10 0 59795  38880.00000  0   -4237883.984   -4250272.833    3717256.581
10 0 59795  39060.00000  0   -3871416.914   -3466220.955    4773956.769
10 0 59795  39240.00000  0   -3341902.310   -2567720.657    5655562.378
10 0 59795  39420.00000  0   -2666074.792   -1591529.678    6329699.826
10 0 59795  39600.00000  0   -1867005.202    -576729.494    6771599.986
10 0 59795  39780.00000  0    -973292.994     436860.413    6964994.515
10 0 59795  39960.00000  0     -18028.502    1410254.989    6902696.016
10 0 59795  40140.00000  0     962437.309    2306812.093    6586866.677
10 0 59795  40320.00000  0    1929883.060    3093628.085    6028959.302
10 0 59795  40500.00000  0    2845716.966    3742768.712    5249331.942
10 0 59795  40680.00000  0    3672538.290    4232298.153    4276540.065
10 0 59795  40860.00000  0    4375695.985    4547059.122    3146312.599
10 0 59795  41040.00000  0    4924781.736    4679174.647    1900243.295
10 0 59795  41220.00000  0    5294977.997    4628236.519     584227.631
10 0 59795  41400.00000  0    5468190.566    4401169.209    -753282.535
10 0 59795  41580.00000  0    5433898.181    4011771.299   -2063134.097
10 0 59795  41760.00000  0    5189676.633    3479963.484   -3297340.324
10 0 59795  41940.00000  0    4741377.128    2830790.352   -4410876.973
10 0 59795  42120.00000  0    4102955.838    2093235.957   -5363330.849
10 0 59795  42300.00000  0    3295973.829    1298914.576   -6120331.841
10 0 59795  42480.00000  0    2348804.295     480710.872   -6654725.048
10 0 59795  42660.00000  0    1295590.546    -328569.229   -6947458.948
10 0 59795  42840.00000  0     175005.035   -1097486.200   -6988185.203
10 0 59795  43020.00000  0    -971154.588   -1797153.126   -6775567.819
10 0 59795  43200.00000  0   -2099485.198   -2402284.509   -6317306.625
10 0 59795  43380.00000  0   -3166576.399   -2892086.037   -5629879.202
10 0 59795  43560.00000  0   -4130642.843   -3250960.657   -4738005.155
10 0 59795  43740.00000  0   -4953149.391   -3469013.185   -3673832.144
10 0 59795  43920.00000  0   -5600365.199   -3542328.332   -2475848.240
10 0 59795  44100.00000  0   -6044782.360   -3473007.728   -1187543.376
10 0 59795  44280.00000  0   -6266327.888   -3268957.127     144145.260
10 0 59795  44460.00000  0   -6253304.047   -2943427.712    1470549.557
10 0 59795  44640.00000  0   -6002998.783   -2514328.398    2743083.736
10 0 59795  44820.00000  0   -5521921.918   -2003339.438    3915068.663
10 0 59795  45000.00000  0   -4825657.891   -1434875.367    4943485.211
10 0 59795  45180.00000  0   -3938337.195    -834948.950    5790575.783
10 0 59795  45360.00000  0   -2891767.092    -229999.639    6425233.253
10 0 59795  45540.00000  0   -1724253.671     354263.705    6824136.415
10 0 59795  45720.00000  0    -479166.539     893949.302    6972588.391
10 0 59795  45900.00000  0     796689.355    1367957.462    6865045.074
10 0 59795  46080.00000  0    2054842.197    1758812.312    6505324.713
10 0 59795  46260.00000  0    3247006.599    2053318.607    5906491.283
10 0 59795  46440.00000  0    4326961.342    2243019.831    5090412.818
10 0 59795  46620.00000  0    5252382.947    2324442.843    4086995.795
10 0 59795  46800.00000  0    5986565.970    2299120.475    2933112.676
10 0 59795  46980.00000  0    6499947.944    2173383.100    1671237.763
10 0 59795  47160.00000  0    6771357.888    1957930.560     347850.617
10 0 59795  47340.00000  0    6788923.109    1667202.856    -988336.201
10 0 59795  47520.00000  0    6550577.233    1318584.932   -2288239.792
10 0 59795  47700.00000  0    6064153.097     931486.009   -3504267.547
10 0 59795  47880.00000  0    5347056.995     526348.010   -4592096.579
10 0 59795  48060.00000  0    4425549.491     123638.986   -5512287.378
10 0 59795  48240.00000  0    3333689.953    -257116.562   -6231668.728
10 0 59795  48420.00000  0    2112007.860    -598224.788   -6724462.013
10 0 59795  48600.00000  0     805961.580    -884593.149   -6973119.365
10 0 59795  48780.00000  0    -535749.182   -1104357.626   -6968871.977
10 0 59795  48960.00000  0   -1862965.662   -1249346.180   -6711988.766
10 0 59795  49140.00000  0   -3125894.853   -1315369.282   -6211749.882
10 0 59795  49320.00000  0   -4276926.500   -1302330.002   -5486136.880
10 0 59795  49500.00000  0   -5272399.561   -1214153.644   -4561249.554
10 0 59795  49680.00000  0   -6074265.163   -1058537.155   -3470442.411
10 0 59795  49860.00000  0   -6651581.417    -846525.514   -2253193.010
10 0 59795  50040.00000  0   -6981773.223    -591928.579    -953722.144
10 0 59795  50220.00000  0   -7051590.521    -310601.595     380595.518
10 0 59795  50400.00000  0   -6857701.592     -19618.544    1700973.888
10 0 59795  50580.00000  0   -6406885.425     263615.238    2959033.170
10 0 59795  50760.00000  0   -5715805.934     522266.691    4108617.836
10 0 59795  50940.00000  0   -4810372.927     740948.219    5107528.779
10 0 59795  51120.00000  0   -3724727.881     906513.171    5919091.013
10 0 59795  51300.00000  0   -2499911.353    1008734.983    6513500.396
10 0 59795  51480.00000  0   -1182270.118    1040838.093    6868909.199
10 0 59795  51660.00000  0     178329.614     999859.581    6972211.432
10 0 59795  51840.00000  0    1530405.007     886824.534    6819512.691
10 0 59795  52020.00000  0    2822814.072     706729.741    6416282.709
10 0 59795  52200.00000  0    4006707.857     468334.632    5777183.833
10 0 59795  52380.00000  0    5037412.646     183764.770    4925571.059
10 0 59795  52560.00000  0    5876169.348    -132059.910    3892670.523
10 0 59795  52740.00000  0    6491663.169    -462147.720    2716451.844
10 0 59795  52920.00000  0    6861267.943    -788275.531    1440220.112
10 0 59795  53100.00000  0    6971934.192   -1091909.594     110982.285
10 0 59795  53280.00000  0    6820679.719   -1355156.591   -1222344.381
10 0 59795  53460.00000  0    6414645.390   -1561693.894   -2510804.058
10 0 59795  53640.00000  0    5770717.357   -1697627.231   -3707257.510
10 0 59795  53820.00000  0    4914747.424   -1752231.118   -4768133.891
10 0 59795  54000.00000  0    3880427.129   -1718535.352   -5655006.804
10 0 59795  54180.00000  0    2707880.692   -1593735.886   -6335938.471
10 0 59795  54360.00000  0    1442055.356   -1379413.885   -6786552.565
10 0 59795  54540.00000  0     130982.804   -1081558.378   -6990823.469
10 0 59795  54720.00000  0   -1176025.142    -710399.085   -6941572.155
10 0 59795  54900.00000  0   -2430187.465    -280055.234   -6640674.320
10 0 59795  55080.00000  0   -3585023.266     191989.982   -6098981.654
10 0 59795  55260.00000  0   -4598030.270     685573.008   -5335964.409
10 0 59795  55440.00000  0   -5432235.433    1178672.603   -4379077.224
10 0 59795  55620.00000  0   -6057566.830    1648348.688   -3262849.206
10 0 59795  55800.00000  0   -6451990.177    2071764.386   -2027705.290
10 0 59795  55980.00000  0   -6602354.753    2427244.476    -718546.648
10 0 59795  56160.00000  0   -6504901.526    2695322.708     616870.193
10 0 59795  56340.00000  0   -6165392.290    2859722.031    1929695.876
10 0 59795  56520.00000  0   -5598843.772    2908217.074    3171813.588
10 0 59795  56700.00000  0   -4828877.556    2833328.999    4297646.270
10 0 59795  56880.00000  0   -3886717.465    2632813.518    5265864.234
10 0 59795  57060.00000  0   -2809890.289    2309920.333    6040917.587
10 0 59795  57240.00000  0   -1640693.993    1873413.750    6594342.726
10 0 59795  57420.00000  0    -424500.125    1337349.732    6905793.753
10 0 59795  57600.00000  0     792027.709     720620.328    6963769.205
10 0 59795  57780.00000  0    1962733.588      46283.920    6766028.436
99
